[{"OBJECT_NAME":"HULIANWANG DIGUI-97","OBJECT_ID":"2025-258B","EPOCH":"2026-03-02T18:50:25.280448","MEAN_MOTION":13.29332026,"ECCENTRICITY":3.76e-5,"INCLINATION":50.0021,"RA_OF_ASC_NODE":317.5128,"ARG_OF_PERICENTER":90.3711,"MEAN_ANOMALY":269.7204,"EPHEMERIS_TYPE":0,"CLASSIFICATION_TYPE":"U","NORAD_CAT_ID":66413,"ELEMENT_SET_NO":999,"REV_AT_EPOCH":1557,"BSTAR":0.00014472,"MEAN_MOTION_DOT":-5.7e-7,"MEAN_MOTION_DDOT":0},{"OBJECT_NAME":"HULIANWANG DIGUI-98","OBJECT_ID":"2025-258C","EPOCH":"2026-03-02T18:38:21.519744","MEAN_MOTION":13.29333592,"ECCENTRICITY":4.27e-5,"INCLINATION":50.0058,"RA_OF_ASC_NODE":317.5105,"ARG_OF_PERICENTER":103.9173,"MEAN_ANOMALY":256.1746,"EPHEMERIS_TYPE":0,"CLASSIFICATION_TYPE":"U","NORAD_CAT_ID":66414,"ELEMENT_SET_NO":999,"REV_AT_EPOCH":1557,"BSTAR":0.00015722,"MEAN_MOTION_DOT":-5.1e-7,"MEAN_MOTION_DDOT":0},{"OBJECT_NAME":"HULIANWANG DIGUI-99","OBJECT_ID":"2025-258D","EPOCH":"2026-03-02T17:50:16.558080","MEAN_MOTION":13.29331177,"ECCENTRICITY":3.03e-5,"INCLINATION":50.0056,"RA_OF_ASC_NODE":317.3312,"ARG_OF_PERICENTER":80.9517,"MEAN_ANOMALY":279.1389,"EPHEMERIS_TYPE":0,"CLASSIFICATION_TYPE":"U","NORAD_CAT_ID":66415,"ELEMENT_SET_NO":999,"REV_AT_EPOCH":1556,"BSTAR":0.00016775,"MEAN_MOTION_DOT":-4.6e-7,"MEAN_MOTION_DDOT":0},{"OBJECT_NAME":"HULIANWANG DIGUI-100","OBJECT_ID":"2025-258E","EPOCH":"2026-03-02T18:26:20.310432","MEAN_MOTION":13.29334122,"ECCENTRICITY":2.86e-5,"INCLINATION":50.006,"RA_OF_ASC_NODE":317.4694,"ARG_OF_PERICENTER":78.2148,"MEAN_ANOMALY":281.8756,"EPHEMERIS_TYPE":0,"CLASSIFICATION_TYPE":"U","NORAD_CAT_ID":66416,"ELEMENT_SET_NO":999,"REV_AT_EPOCH":1558,"BSTAR":0.00017228,"MEAN_MOTION_DOT":-4.4e-7,"MEAN_MOTION_DDOT":0},{"OBJECT_NAME":"HULIANWANG DIGUI-101","OBJECT_ID":"2025-258F","EPOCH":"2026-03-02T18:14:19.486464","MEAN_MOTION":13.29332288,"ECCENTRICITY":3.17e-5,"INCLINATION":50.001,"RA_OF_ASC_NODE":317.3683,"ARG_OF_PERICENTER":73.4857,"MEAN_ANOMALY":286.605,"EPHEMERIS_TYPE":0,"CLASSIFICATION_TYPE":"U","NORAD_CAT_ID":66417,"ELEMENT_SET_NO":999,"REV_AT_EPOCH":1558,"BSTAR":0.00016294,"MEAN_MOTION_DOT":-4.8e-7,"MEAN_MOTION_DDOT":0},{"OBJECT_NAME":"HULIANWANG DIGUI-102","OBJECT_ID":"2025-258G","EPOCH":"2026-03-02T17:38:11.962752","MEAN_MOTION":13.29334282,"ECCENTRICITY":3.25e-5,"INCLINATION":50.0024,"RA_OF_ASC_NODE":317.2484,"ARG_OF_PERICENTER":96.8815,"MEAN_ANOMALY":263.2094,"EPHEMERIS_TYPE":0,"CLASSIFICATION_TYPE":"U","NORAD_CAT_ID":66418,"ELEMENT_SET_NO":999,"REV_AT_EPOCH":1557,"BSTAR":0.00014707,"MEAN_MOTION_DOT":-5.6e-7,"MEAN_MOTION_DDOT":0},{"OBJECT_NAME":"HULIANWANG DIGUI-103","OBJECT_ID":"2025-258H","EPOCH":"2026-03-02T19:14:27.317184","MEAN_MOTION":13.29333315,"ECCENTRICITY":2.59e-5,"INCLINATION":50.0017,"RA_OF_ASC_NODE":316.9276,"ARG_OF_PERICENTER":74.3834,"MEAN_ANOMALY":285.7067,"EPHEMERIS_TYPE":0,"CLASSIFICATION_TYPE":"U","NORAD_CAT_ID":66419,"ELEMENT_SET_NO":999,"REV_AT_EPOCH":1558,"BSTAR":0.00014503,"MEAN_MOTION_DOT":-5.7e-7,"MEAN_MOTION_DDOT":0},{"OBJECT_NAME":"HULIANWANG DIGUI-104","OBJECT_ID":"2025-258J","EPOCH":"2026-03-02T19:02:26.734272","MEAN_MOTION":13.29332677,"ECCENTRICITY":3.52e-5,"INCLINATION":50.0034,"RA_OF_ASC_NODE":316.9064,"ARG_OF_PERICENTER":101.2071,"MEAN_ANOMALY":258.8841,"EPHEMERIS_TYPE":0,"CLASSIFICATION_TYPE":"U","NORAD_CAT_ID":66420,"ELEMENT_SET_NO":999,"REV_AT_EPOCH":1557,"BSTAR":0.00013368,"MEAN_MOTION_DOT":-6.2e-7,"MEAN_MOTION_DDOT":0},{"OBJECT_NAME":"HULIANWANG DIGUI-105","OBJECT_ID":"2025-285A","EPOCH":"2026-03-02T17:19:48.104256","MEAN_MOTION":13.29331639,"ECCENTRICITY":3.6e-6,"INCLINATION":50.0042,"RA_OF_ASC_NODE":168.0525,"ARG_OF_PERICENTER":307.6487,"MEAN_ANOMALY":52.4382,"EPHEMERIS_TYPE":0,"CLASSIFICATION_TYPE":"U","NORAD_CAT_ID":66915,"ELEMENT_SET_NO":999,"REV_AT_EPOCH":1189,"BSTAR":9.9751e-5,"MEAN_MOTION_DOT":-7.8e-7,"MEAN_MOTION_DDOT":0},{"OBJECT_NAME":"HULIANWANG DIGUI-106","OBJECT_ID":"2025-285B","EPOCH":"2026-03-02T18:56:07.427904","MEAN_MOTION":13.29372523,"ECCENTRICITY":0.0006397,"INCLINATION":50.0038,"RA_OF_ASC_NODE":167.7521,"ARG_OF_PERICENTER":24.0977,"MEAN_ANOMALY":336.0193,"EPHEMERIS_TYPE":0,"CLASSIFICATION_TYPE":"U","NORAD_CAT_ID":66916,"ELEMENT_SET_NO":999,"REV_AT_EPOCH":1190,"BSTAR":-1.3603,"MEAN_MOTION_DOT":-0.00606226,"MEAN_MOTION_DDOT":0},{"OBJECT_NAME":"HULIANWANG DIGUI-107","OBJECT_ID":"2025-285C","EPOCH":"2026-03-02T18:44:00.510144","MEAN_MOTION":13.29331266,"ECCENTRICITY":2.2e-6,"INCLINATION":50.002,"RA_OF_ASC_NODE":167.6787,"ARG_OF_PERICENTER":355.903,"MEAN_ANOMALY":4.1842,"EPHEMERIS_TYPE":0,"CLASSIFICATION_TYPE":"U","NORAD_CAT_ID":66917,"ELEMENT_SET_NO":999,"REV_AT_EPOCH":1190,"BSTAR":8.9306e-5,"MEAN_MOTION_DOT":-8.3e-7,"MEAN_MOTION_DDOT":0},{"OBJECT_NAME":"HULIANWANG DIGUI-108","OBJECT_ID":"2025-285D","EPOCH":"2026-03-02T16:43:42.655872","MEAN_MOTION":13.2933196,"ECCENTRICITY":3.0e-6,"INCLINATION":50.0041,"RA_OF_ASC_NODE":167.9214,"ARG_OF_PERICENTER":359.8729,"MEAN_ANOMALY":0.2143,"EPHEMERIS_TYPE":0,"CLASSIFICATION_TYPE":"U","NORAD_CAT_ID":66918,"ELEMENT_SET_NO":999,"REV_AT_EPOCH":1189,"BSTAR":3.7556e-5,"MEAN_MOTION_DOT":-1.07e-6,"MEAN_MOTION_DDOT":0},{"OBJECT_NAME":"HULIANWANG DIGUI-109","OBJECT_ID":"2025-285E","EPOCH":"2026-03-02T18:19:56.404992","MEAN_MOTION":13.29332383,"ECCENTRICITY":3.6e-6,"INCLINATION":50.0065,"RA_OF_ASC_NODE":167.6278,"ARG_OF_PERICENTER":322.9299,"MEAN_ANOMALY":37.1571,"EPHEMERIS_TYPE":0,"CLASSIFICATION_TYPE":"U","NORAD_CAT_ID":66919,"ELEMENT_SET_NO":999,"REV_AT_EPOCH":1191,"BSTAR":9.1841e-5,"MEAN_MOTION_DOT":-8.1e-7,"MEAN_MOTION_DDOT":0},{"OBJECT_NAME":"HULIANWANG DIGUI-110","OBJECT_ID":"2025-285F","EPOCH":"2026-03-02T19:56:10.543776","MEAN_MOTION":13.29331614,"ECCENTRICITY":9.6e-6,"INCLINATION":50.0103,"RA_OF_ASC_NODE":167.3396,"ARG_OF_PERICENTER":351.329,"MEAN_ANOMALY":8.7581,"EPHEMERIS_TYPE":0,"CLASSIFICATION_TYPE":"U","NORAD_CAT_ID":66920,"ELEMENT_SET_NO":999,"REV_AT_EPOCH":1191,"BSTAR":0.00011949,"MEAN_MOTION_DOT":-6.9e-7,"MEAN_MOTION_DDOT":0},{"OBJECT_NAME":"HULIANWANG DIGUI-111","OBJECT_ID":"2025-285G","EPOCH":"2026-03-02T19:44:08.651904","MEAN_MOTION":13.29331658,"ECCENTRICITY":5.3e-6,"INCLINATION":50.0114,"RA_OF_ASC_NODE":167.3093,"ARG_OF_PERICENTER":340.0069,"MEAN_ANOMALY":20.0801,"EPHEMERIS_TYPE":0,"CLASSIFICATION_TYPE":"U","NORAD_CAT_ID":66921,"ELEMENT_SET_NO":999,"REV_AT_EPOCH":1191,"BSTAR":8.5462e-5,"MEAN_MOTION_DOT":-8.4e-7,"MEAN_MOTION_DDOT":0},{"OBJECT_NAME":"HULIANWANG DIGUI-112","OBJECT_ID":"2025-285H","EPOCH":"2026-03-02T19:32:07.085760","MEAN_MOTION":13.29333601,"ECCENTRICITY":7.6e-6,"INCLINATION":50.0077,"RA_OF_ASC_NODE":167.2389,"ARG_OF_PERICENTER":308.5327,"MEAN_ANOMALY":51.5538,"EPHEMERIS_TYPE":0,"CLASSIFICATION_TYPE":"U","NORAD_CAT_ID":66922,"ELEMENT_SET_NO":999,"REV_AT_EPOCH":1191,"BSTAR":9.6089e-5,"MEAN_MOTION_DOT":-7.9e-7,"MEAN_MOTION_DDOT":0}]
