HULIANWANG DIGUI-97     
1 66413U 25258B   26061.78501482 -.00000057  00000+0  14472-3 0  9995
2 66413  50.0021 317.5128 0000376  90.3711 269.7204 13.29332026 15573
HULIANWANG DIGUI-98     
1 66414U 25258C   26061.77663796 -.00000051  00000+0  15722-3 0  9995
2 66414  50.0058 317.5105 0000427 103.9173 256.1746 13.29333592 15579
HULIANWANG DIGUI-99     
1 66415U 25258D   26061.74324720 -.00000046  00000+0  16775-3 0  9997
2 66415  50.0056 317.3312 0000303  80.9517 279.1389 13.29331177 15569
HULIANWANG DIGUI-100    
1 66416U 25258E   26061.76829063 -.00000044  00000+0  17228-3 0  9992
2 66416  50.0060 317.4694 0000286  78.2148 281.8756 13.29334122 15582
HULIANWANG DIGUI-101    
1 66417U 25258F   26061.75994776 -.00000048  00000+0  16294-3 0  9992
2 66417  50.0010 317.3683 0000317  73.4857 286.6050 13.29332288 15585
HULIANWANG DIGUI-102    
1 66418U 25258G   26061.73486068 -.00000056  00000+0  14707-3 0  9997
2 66418  50.0024 317.2484 0000325  96.8815 263.2094 13.29334282 15575
HULIANWANG DIGUI-103    
1 66419U 25258H   26061.80170506 -.00000057  00000+0  14503-3 0  9998
2 66419  50.0017 316.9276 0000259  74.3834 285.7067 13.29333315 15587
HULIANWANG DIGUI-104    
1 66420U 25258J   26061.79336498 -.00000062  00000+0  13368-3 0  9996
2 66420  50.0034 316.9064 0000352 101.2071 258.8841 13.29332677 15570
HULIANWANG DIGUI-105    
1 66915U 25285A   26061.72208454 -.00000078  00000+0  99751-4 0  9996
2 66915  50.0042 168.0525 0000036 307.6487  52.4382 13.29331639 11894
HULIANWANG DIGUI-106    
1 66916U 25285B   26061.78897486 -.00606226  00000+0 -13603+1 0  9998
2 66916  50.0038 167.7521 0006397  24.0977 336.0193 13.29372523 11902
HULIANWANG DIGUI-107    
1 66917U 25285C   26061.78056146 -.00000083  00000+0  89306-4 0  9994
2 66917  50.0020 167.6787 0000022 355.9030   4.1842 13.29331266 11905
HULIANWANG DIGUI-108    
1 66918U 25285D   26061.69702148 -.00000107  00000+0  37556-4 0  9992
2 66918  50.0041 167.9214 0000030 359.8729   0.2143 13.29331960 11894
HULIANWANG DIGUI-109    
1 66919U 25285E   26061.76384728 -.00000081  00000+0  91841-4 0  9999
2 66919  50.0065 167.6278 0000036 322.9299  37.1571 13.29332383 11914
HULIANWANG DIGUI-110    
1 66920U 25285F   26061.83067759 -.00000069  00000+0  11949-3 0  9997
2 66920  50.0103 167.3396 0000096 351.3290   8.7581 13.29331614 11911
HULIANWANG DIGUI-111    
1 66921U 25285G   26061.82232236 -.00000084  00000+0  85462-4 0  9990
2 66921  50.0114 167.3093 0000053 340.0069  20.0801 13.29331658 11910
HULIANWANG DIGUI-112    
1 66922U 25285H   26061.81397090 -.00000079  00000+0  96089-4 0  9991
2 66922  50.0077 167.2389 0000076 308.5327  51.5538 13.29333601 11913
